ONEWEB-0620             
1 55161U 23004X   25105.49480674 -.00000557  00000+0 -16076-2 0  9992
2 55161  87.8793 106.3523 0001802 104.3952 255.7376 13.11419062109774
ONEWEB-0621             
1 55162U 23004Y   25105.52197348  .00000565  00000+0  15587-2 0  9993
2 55162  87.8790 106.3058 0002217  90.4427 269.6955 13.11418224109752
ONEWEB-0622             
1 55163U 23004Z   25105.52703750  .00000590  00000+0  16274-2 0  9996
2 55163  87.8787 106.3266 0002314 109.7127 250.4250 13.11418275109740
ONEWEB-0623             
1 55164U 23004AA  25105.49751627  .00000034  00000+0  55615-4 0  9996
2 55164  87.9016  91.0690 0002560 101.0744 259.0676 13.17647059111268
ONEWEB-0624             
1 55165U 23004AB  25105.27558441  .00000295  00000+0  78534-3 0  9995
2 55165  87.8846  75.8027 0002090  88.1102 272.0266 13.12444772111929
ONEWEB-0625             
1 55166U 23004AC  25105.48739143  .00000010  00000+0 -68193-5 0  9997
2 55166  87.9015  91.0689 0002010  82.3840 277.7520 13.17647261111254
ONEWEB-0626             
1 55167U 23004AD  25105.24946085  .00000067  00000+0  13863-3 0  9990
2 55167  87.9012  91.1147 0001368  87.9532 272.1756 13.17646483111228
ONEWEB-0627             
1 55168U 23004AE  25105.23764550  .00000071  00000+0  15036-3 0  9994
2 55168  87.9013  91.1195 0002306 101.5019 258.6372 13.17647087111223
